start=new Date('2022-05-24T00:00:00.000Z').valueOf();
sats=[{"GP_ID":"204341576","TLE_LINE1":"1 51745U 22016AH  22143.91668981 -.00019786  00000-0 -12282-2 0  9993","NORAD_CAT_ID":"51745","APOAPSIS":"540.841","TIME_SYSTEM":"UTC","INCLINATION":"53.2138","EPOCH":"2022-05-23T22:00:01.999584","SITE":"AFETR","BSTAR":"-0.00122820000000","MEAN_ANOMALY":"82.6859","CLASSIFICATION_TYPE":"U","CENTER_NAME":"EARTH","LAUNCH_DATE":"2022-02-21","RA_OF_ASC_NODE":"60.0958","SEMIMAJOR_AXIS":"6917.857","MEAN_MOTION":"15.08847614","OBJECT_TYPE":"PAYLOAD","PERIAPSIS":"538.603","ARG_OF_PERICENTER":"54.8371","REF_FRAME":"TEME","ECCENTRICITY":"0.00016170","OBJECT_NAME":"STARLINK-3449","RCS_SIZE":"LARGE","PERIOD":"95.437","ELEMENT_SET_NO":"999","EPHEMERIS_TYPE":"0","MEAN_ELEMENT_THEORY":"SGP4","TLE_LINE2":"2 51745  53.2138  60.0958 0001617  54.8371  82.6859 15.08847614 15498","MEAN_MOTION_DOT":"-0.00019786","FILE":"3460780","MEAN_MOTION_DDOT":"0.0000000000000","OBJECT_ID":"2022-016AH","COUNTRY_CODE":"US","DECAY_DATE":null,"REV_AT_EPOCH":"1549"},{"MEAN_MOTION":"15.33850513","OBJECT_TYPE":"PAYLOAD","REF_FRAME":"TEME","ARG_OF_PERICENTER":"50.6619","PERIAPSIS":"463.391","ECCENTRICITY":"0.00013850","OBJECT_NAME":"STARLINK-3502","RCS_SIZE":"LARGE","PERIOD":"93.881","TLE_LINE2":"2 51746  53.2176  51.6338 0001385  50.6619 344.8354 15.33850513  1308","FILE":"3460905","MEAN_MOTION_DOT":"-0.00719163","MEAN_ELEMENT_THEORY":"SGP4","EPHEMERIS_TYPE":"0","ELEMENT_SET_NO":"999","REV_AT_EPOCH":"130","DECAY_DATE":null,"COUNTRY_CODE":"US","OBJECT_ID":"2022-016AJ","MEAN_MOTION_DDOT":"0.0000000000000","GP_ID":"204366986","TLE_LINE1":"1 51746U 22016AJ  22143.91668981 -.00719163  00000-0 -23463-1 0  9992","NORAD_CAT_ID":"51746","INCLINATION":"53.2176","TIME_SYSTEM":"UTC","APOAPSIS":"465.287","SITE":"AFETR","EPOCH":"2022-05-23T22:00:01.999584","BSTAR":"-0.02346300000000","RA_OF_ASC_NODE":"51.6338","LAUNCH_DATE":"2022-02-21","CENTER_NAME":"EARTH","MEAN_ANOMALY":"344.8354","CLASSIFICATION_TYPE":"U","SEMIMAJOR_AXIS":"6842.474"},{"ECCENTRICITY":"0.00014340","ARG_OF_PERICENTER":"58.1999","REF_FRAME":"TEME","PERIAPSIS":"538.739","OBJECT_TYPE":"PAYLOAD","MEAN_MOTION":"15.08844568","COUNTRY_CODE":"US","DECAY_DATE":null,"REV_AT_EPOCH":"130","MEAN_MOTION_DDOT":"0.0000000000000","OBJECT_ID":"2022-016AK","MEAN_ELEMENT_THEORY":"SGP4","EPHEMERIS_TYPE":"0","TLE_LINE2":"2 51747  53.2150  60.0832 0001434  58.1999 139.2985 15.08844568  1304","FILE":"3460905","MEAN_MOTION_DOT":"-0.00007059","ELEMENT_SET_NO":"999","PERIOD":"95.437","RCS_SIZE":"LARGE","OBJECT_NAME":"STARLINK-3446","EPOCH":"2022-05-23T22:00:01.999584","SITE":"AFETR","TIME_SYSTEM":"UTC","INCLINATION":"53.2150","APOAPSIS":"540.723","NORAD_CAT_ID":"51747","GP_ID":"204367737","TLE_LINE1":"1 51747U 22016AK  22143.91668981 -.00007059  00000-0 -42577-3 0  9996","SEMIMAJOR_AXIS":"6917.866","CENTER_NAME":"EARTH","RA_OF_ASC_NODE":"60.0832","LAUNCH_DATE":"2022-02-21","CLASSIFICATION_TYPE":"U","MEAN_ANOMALY":"139.2985","BSTAR":"-0.00042577000000"},{"PERIAPSIS":"462.183","ARG_OF_PERICENTER":"48.3415","REF_FRAME":"TEME","ECCENTRICITY":"0.00014300","MEAN_MOTION":"15.34246411","OBJECT_TYPE":"PAYLOAD","ELEMENT_SET_NO":"999","MEAN_ELEMENT_THEORY":"SGP4","EPHEMERIS_TYPE":"0","TLE_LINE2":"2 51748  53.2176  51.6511 0001430  48.3415   3.6599 15.34246411  1300","FILE":"3460905","MEAN_MOTION_DOT":"-0.00719271","MEAN_MOTION_DDOT":"0.0000000000000","OBJECT_ID":"2022-016AL","COUNTRY_CODE":"US","DECAY_DATE":null,"REV_AT_EPOCH":"130","OBJECT_NAME":"STARLINK-3501","RCS_SIZE":"LARGE","PERIOD":"93.857","APOAPSIS":"464.140","TIME_SYSTEM":"UTC","INCLINATION":"53.2176","EPOCH":"2022-05-23T22:00:01.999584","SITE":"AFETR","TLE_LINE1":"1 51748U 22016AL  22143.91668981 -.00719271  00000-0 -23172-1 0  9991","GP_ID":"204367984","NORAD_CAT_ID":"51748","SEMIMAJOR_AXIS":"6841.297","BSTAR":"-0.02317200000000","MEAN_ANOMALY":"3.6599","CLASSIFICATION_TYPE":"U","CENTER_NAME":"EARTH","RA_OF_ASC_NODE":"51.6511","LAUNCH_DATE":"2022-02-21"},{"APOAPSIS":"541.009","INCLINATION":"53.2133","TIME_SYSTEM":"UTC","SITE":"AFETR","EPOCH":"2022-05-23T22:00:01.999584","TLE_LINE1":"1 51749U 22016AM  22143.91668981 -.00055797  00000-0 -35142-2 0  9999","GP_ID":"204342956","NORAD_CAT_ID":"51749","SEMIMAJOR_AXIS":"6917.855","BSTAR":"-0.00351420000000","MEAN_ANOMALY":"343.7770","CLASSIFICATION_TYPE":"U","RA_OF_ASC_NODE":"60.0988","LAUNCH_DATE":"2022-02-21","CENTER_NAME":"EARTH","PERIAPSIS":"538.430","REF_FRAME":"TEME","ARG_OF_PERICENTER":"48.4689","ECCENTRICITY":"0.00018640","MEAN_MOTION":"15.08848370","OBJECT_TYPE":"PAYLOAD","ELEMENT_SET_NO":"999","MEAN_MOTION_DOT":"-0.00055797","TLE_LINE2":"2 51749  53.2133  60.0988 0001864  48.4689 343.7770 15.08848370 15476","FILE":"3460826","EPHEMERIS_TYPE":"0","MEAN_ELEMENT_THEORY":"SGP4","MEAN_MOTION_DDOT":"0.0000000000000","OBJECT_ID":"2022-016AM","REV_AT_EPOCH":"1547","DECAY_DATE":null,"COUNTRY_CODE":"US","RCS_SIZE":"LARGE","OBJECT_NAME":"STARLINK-3451","PERIOD":"95.437"},{"OBJECT_NAME":"STARLINK-3505","RCS_SIZE":"MEDIUM","PERIOD":"93.833","ELEMENT_SET_NO":"999","EPHEMERIS_TYPE":"0","MEAN_ELEMENT_THEORY":"SGP4","TLE_LINE2":"2 51750  53.2175  51.6682 0001344  55.7684  12.3685 15.34642253  1302","MEAN_MOTION_DOT":"-0.00719248","FILE":"3460905","MEAN_MOTION_DDOT":"0.0000000000000","OBJECT_ID":"2022-016AN","COUNTRY_CODE":"US","DECAY_DATE":null,"REV_AT_EPOCH":"130","MEAN_MOTION":"15.34642253","OBJECT_TYPE":"PAYLOAD","PERIAPSIS":"461.066","ARG_OF_PERICENTER":"55.7684","REF_FRAME":"TEME","ECCENTRICITY":"0.00013440","BSTAR":"-0.02288000000000","CLASSIFICATION_TYPE":"U","MEAN_ANOMALY":"12.3685","CENTER_NAME":"EARTH","LAUNCH_DATE":"2022-02-21","RA_OF_ASC_NODE":"51.6682","SEMIMAJOR_AXIS":"6840.120","TLE_LINE1":"1 51750U 22016AN  22143.91668981 -.00719248  00000-0 -22880-1 0  9993","GP_ID":"204366487","NORAD_CAT_ID":"51750","APOAPSIS":"462.905","TIME_SYSTEM":"UTC","INCLINATION":"53.2175","EPOCH":"2022-05-23T22:00:01.999584","SITE":"AFETR"},{"BSTAR":"-0.02331900000000","RA_OF_ASC_NODE":"51.6424","LAUNCH_DATE":"2022-02-21","CENTER_NAME":"EARTH","CLASSIFICATION_TYPE":"U","MEAN_ANOMALY":"350.6438","SEMIMAJOR_AXIS":"6841.885","TLE_LINE1":"1 51751U 22016AP  22143.91668981 -.00719263  00000-0 -23319-1 0  9999","GP_ID":"204367238","NORAD_CAT_ID":"51751","INCLINATION":"53.2176","TIME_SYSTEM":"UTC","APOAPSIS":"464.676","SITE":"AFETR","EPOCH":"2022-05-23T22:00:01.999584","RCS_SIZE":"LARGE","OBJECT_NAME":"STARLINK-3506","PERIOD":"93.869","TLE_LINE2":"2 51751  53.2176  51.6424 0001353  53.1517 350.6438 15.34048493  1305","FILE":"3460905","MEAN_MOTION_DOT":"-0.00719263","EPHEMERIS_TYPE":"0","MEAN_ELEMENT_THEORY":"SGP4","ELEMENT_SET_NO":"999","REV_AT_EPOCH":"130","DECAY_DATE":null,"COUNTRY_CODE":"US","MEAN_MOTION_DDOT":"0.0000000000000","OBJECT_ID":"2022-016AP","MEAN_MOTION":"15.34048493","OBJECT_TYPE":"PAYLOAD","REF_FRAME":"TEME","ARG_OF_PERICENTER":"53.1517","PERIAPSIS":"462.824","ECCENTRICITY":"0.00013530"},{"EPOCH":"2022-05-23T22:00:01.999584","SITE":"AFETR","TIME_SYSTEM":"UTC","INCLINATION":"53.2175","APOAPSIS":"462.293","NORAD_CAT_ID":"51752","GP_ID":"204367485","TLE_LINE1":"1 51752U 22016AQ  22143.91668981 -.00719175  00000-0 -22733-1 0  9991","SEMIMAJOR_AXIS":"6839.532","CENTER_NAME":"EARTH","RA_OF_ASC_NODE":"51.6766","LAUNCH_DATE":"2022-02-21","CLASSIFICATION_TYPE":"U","MEAN_ANOMALY":"16.6183","BSTAR":"-0.02273300000000","ECCENTRICITY":"0.00013100","ARG_OF_PERICENTER":"59.4480","REF_FRAME":"TEME","PERIAPSIS":"460.501","OBJECT_TYPE":"PAYLOAD","MEAN_MOTION":"15.34840131","DECAY_DATE":null,"COUNTRY_CODE":"US","REV_AT_EPOCH":"130","OBJECT_ID":"2022-016AQ","MEAN_MOTION_DDOT":"0.0000000000000","EPHEMERIS_TYPE":"0","MEAN_ELEMENT_THEORY":"SGP4","TLE_LINE2":"2 51752  53.2175  51.6766 0001310  59.4480  16.6183 15.34840131  1300","FILE":"3460905","MEAN_MOTION_DOT":"-0.00719175","ELEMENT_SET_NO":"999","PERIOD":"93.821","RCS_SIZE":"MEDIUM","OBJECT_NAME":"STARLINK-3511"},{"EPOCH":"2022-05-23T22:00:01.999584","SITE":"AFETR","APOAPSIS":"463.481","TIME_SYSTEM":"UTC","INCLINATION":"53.2175","NORAD_CAT_ID":"51753","TLE_LINE1":"1 51753U 22016AR  22143.91668981 -.00719174  00000-0 -23023-1 0  9994","GP_ID":"204368572","SEMIMAJOR_AXIS":"6840.709","MEAN_ANOMALY":"4.6453","CLASSIFICATION_TYPE":"U","CENTER_NAME":"EARTH","LAUNCH_DATE":"2022-02-21","RA_OF_ASC_NODE":"51.6596","BSTAR":"-0.02302300000000","ECCENTRICITY":"0.00013260","PERIAPSIS":"461.667","ARG_OF_PERICENTER":"55.4699","REF_FRAME":"TEME","OBJECT_TYPE":"PAYLOAD","MEAN_MOTION":"15.34444292","MEAN_MOTION_DDOT":"0.0000000000000","OBJECT_ID":"2022-016AR","DECAY_DATE":null,"COUNTRY_CODE":"US","REV_AT_EPOCH":"130","ELEMENT_SET_NO":"999","EPHEMERIS_TYPE":"0","MEAN_ELEMENT_THEORY":"SGP4","FILE":"3460905","TLE_LINE2":"2 51753  53.2175  51.6596 0001326  55.4699   4.6453 15.34444292  1302","MEAN_MOTION_DOT":"-0.00719174","PERIOD":"93.845","RCS_SIZE":"LARGE","OBJECT_NAME":"STARLINK-3507"},{"PERIOD":"93.800","RCS_SIZE":"LARGE","OBJECT_NAME":"STARLINK-3457","OBJECT_ID":"2022-016AS","MEAN_MOTION_DDOT":"0.0000000000000","DECAY_DATE":null,"COUNTRY_CODE":"US","REV_AT_EPOCH":"130","ELEMENT_SET_NO":"999","MEAN_ELEMENT_THEORY":"SGP4","EPHEMERIS_TYPE":"0","FILE":"3460905","TLE_LINE2":"2 51754  53.2174  51.6908 0001372  55.5178  34.2711 15.35182008  1304","MEAN_MOTION_DOT":"-0.00718863","OBJECT_TYPE":"PAYLOAD","MEAN_MOTION":"15.35182008","ECCENTRICITY":"0.00013720","PERIAPSIS":"459.444","ARG_OF_PERICENTER":"55.5178","REF_FRAME":"TEME","MEAN_ANOMALY":"34.2711","CLASSIFICATION_TYPE":"U","CENTER_NAME":"EARTH","LAUNCH_DATE":"2022-02-21","RA_OF_ASC_NODE":"51.6908","BSTAR":"-0.02247400000000","SEMIMAJOR_AXIS":"6838.517","NORAD_CAT_ID":"51754","TLE_LINE1":"1 51754U 22016AS  22143.91668981 -.00718863  00000-0 -22474-1 0  9998","GP_ID":"204366987","EPOCH":"2022-05-23T22:00:01.999584","SITE":"AFETR","APOAPSIS":"461.320","TIME_SYSTEM":"UTC","INCLINATION":"53.2174"}];
